[{"OBJECT_NAME":"STARLINK-34284","OBJECT_ID":"2025-117K","EPOCH":"2026-03-09T21:50:02.114880","MEAN_MOTION":15.30215777,"ECCENTRICITY":0.00015448,"INCLINATION":53.1609,"RA_OF_ASC_NODE":38.2776,"ARG_OF_PERICENTER":79.1308,"MEAN_ANOMALY":280.9867,"EPHEMERIS_TYPE":0,"CLASSIFICATION_TYPE":"U","NORAD_CAT_ID":64212,"ELEMENT_SET_NO":999,"REV_AT_EPOCH":4456,"BSTAR":0.0013720202,"MEAN_MOTION_DOT":0.00040518,"MEAN_MOTION_DDOT":0},{"OBJECT_NAME":"CZ-6A DEB","OBJECT_ID":"2024-140BH","EPOCH":"2026-03-09T12:42:23.031936","MEAN_MOTION":15.05550408,"ECCENTRICITY":0.0121353,"INCLINATION":89.148,"RA_OF_ASC_NODE":290.4372,"ARG_OF_PERICENTER":169.3672,"MEAN_ANOMALY":191.0177,"EPHEMERIS_TYPE":0,"CLASSIFICATION_TYPE":"U","NORAD_CAT_ID":60656,"ELEMENT_SET_NO":999,"REV_AT_EPOCH":8464,"BSTAR":0.002338,"MEAN_MOTION_DOT":0.00039913,"MEAN_MOTION_DDOT":0}]
